#dP2023 10  8 18  0  0.00000000      96 __u+U ITR00 EXT  IAC
## 2283  64800.00000000   900.00000000 60225 0.7500000000000
+  119   C07C08C09C10C11C12C13C14C16C19C20C21C22C23C24C25C26
+        C27C28C29C30C32C33C34C35C36C37C38C39C40C41C42C43C44
+        C45C46E02E03E04E05E07E08E09E10E11E12E13E14E15E18E19
+        E21E24E25E26E27E30E31E33E34E36G01G02G03G04G05G06G07
+        G08G09G10G11G12G13G14G15G16G17G18G19G20G21G22G23G24
+        G25G26G27G28G29G30G31G32J02J03J04R01R02R03R04R05R07
+        R08R09R11R12R13R14R15R16R17R18R19R20R21R22R24R25R26
++         9 10 10 10  9  7 11  8 10  9  8  8  6  9  8  8  8
++         8 10  8  8  8  7  6  8  9  9 10 10  9  8  7  7  6
++         8  9  7  6  7  7  8  6  7  7  8  7  6  8  6  7  6
++         7  7  8  7  8  7  8  7  7  8 12  7  7  7  7  9  8
++         7  8  7 11  6  6  7  8  8  8 10  7  7  8  7  8  6
++         7  8  7  6  7  8  6  7  9  8  9  7  7  8  7  9  8
++         8  8  7  8  9  8  8  8  8  8 10  9  8 10  8  7  7
%c M  cc GPS ccc cccc cccc cccc cccc ccccc ccccc ccccc ccccc
%c cc cc ccc ccc cccc cccc cccc cccc ccccc ccccc ccccc ccccc
%f  0.0000000  0.000000000  0.00000000000  0.000000000000000
%f  0.0000000  0.000000000  0.00000000000  0.000000000000000
%i    0    0    0    0      0      0      0      0         0
%i    0    0    0    0      0      0      0      0         0
/* IAC                                ULTRA-RAPID PREDICTION
/* S/V CLOCKS ARE ALIGNED TO GNSS TIME                      
/* G:C1WC2W R:C1PC2P E:C1XC5X C:C2IC6I J:C1CC2S             
/* PCV:IGS20_2280 OL/AL:FES2004  NONE     YN ORB:CoN CLK:CoN
*  2023 10 09  0 30  0.00000000
PC07  -6258.310528  38514.320427 -15627.177154   -128.561931
PC08  -3919.314599  20546.209765  36610.707460    306.409495
PC09 -11821.772342  29601.539321 -27467.235435     65.826986
PC10    445.302405  40865.563556  -8798.117831   -205.074067
PC11   2185.056779 -20533.029758 -18711.710383    193.715462
PC12  17100.297244 -21848.043058  -3042.014489    905.333082
PC13   2848.037495  24055.443322  34707.003816    364.582780
PC14  -7307.820537 -26814.050862  -2814.866379    551.778500
PC16 -22811.255523  30320.563198 -18472.345002   -116.907087
PC19  12926.724489  23856.658932  -6467.957007   -971.395925
PC20   1678.375386  25920.259907  10168.869173    219.229933
PC21  11603.060385 -12446.316280 -22117.293986   -969.730507
PC22  17369.823453   7918.921759 -20360.354045   -274.323594
PC23 -27162.499807  -6236.264966   1358.789655   -849.631322
PC24   4599.626579 -15712.726777  22589.462781    474.617821
PC25 -17051.313059 -14803.814345  16373.642048    228.681184
PC26  21719.847639  -7793.539770  15703.211702   -189.003164
PC27 -20760.591374  17890.169713  -5291.720711    210.709955
PC28 -20462.971957   3507.529794 -18636.028255    158.455505
PC29   7718.729959  15091.607231  22164.705414    185.186314
PC30  -9477.802869  23816.819519  11044.321961     -6.181143
PC32 -11599.335941  12390.207641  22154.587521   -529.252471
PC33 -13039.566967 -23844.808196   6358.475467   -957.145305
PC34   8262.353490 -23665.525000 -12258.631918    276.926489
PC35  20363.871640  -4222.946054  18585.176635    529.421491
PC36  15956.392093  15429.232701 -16897.350278   -188.604776
PC37 -22390.191385   6822.079526 -15161.864349   -848.047874
PC38 -13315.349990  18951.523164  35245.824925    109.917297
PC39 -25074.073943  31132.316203 -13762.279854     -5.145669
PC40 -10756.404783  35714.406814 -19376.730795    -39.415120
PC41 -17486.028863  -8652.497940  19998.872129   -873.842120
PC42   -662.449264 -25452.844299 -11413.586784   -526.634797
PC43  -7030.099515 -15848.854923 -21869.842935     43.155406
PC44  20130.268245 -18529.477396   5419.348530    255.826930
PC45  27275.544381   5912.386363   -812.698030    -34.078411
PC46  -3123.902094  15902.322293 -22718.922856    -90.381726
PE02  16157.997229  -7126.327098  23759.588616     68.799929
PE03  16072.562038 -19100.897568 -15924.148183    -63.245457
PE04  -5804.348653  28981.381958  -1611.879827   -229.976826
PE05  16985.364463   1860.897287 -24174.853398     25.670765
PE07  -7702.641171 -22149.313776  18064.774006    -80.688610
PE08   6125.140501 -28943.198067   1117.798238   -158.486522
PE09   7542.994953  22208.024548 -18056.417181   -184.626128
PE10   1958.114357  16031.591296  24799.737079   -569.713862
PE11  13615.176400  11799.323215  23476.843571   3061.512665
PE12  -8858.803784  17532.681667  22142.884473   -728.928206
PE13 -12863.785296 -12085.582230 -23756.484885    -19.712015
PE14  -4903.836901 -28064.238931 -15562.255078    363.180445
PE15   9351.588224 -17486.928078 -21970.524931    -59.644866
PE18   5951.802933  18298.576630  13558.735491    622.621841
PE19 -16744.927132  16786.843283  17721.197051  -1465.249300
PE21 -24219.544648 -10198.083447 -13616.141666   -557.281889
PE24  18175.972961  22735.790694  -5448.901824   -365.183054
PE25  24258.397210  10505.497927  13332.458913     -2.964517
PE26 -27485.550877    695.764076 -10943.630741    245.703209
PE27 -18598.969396 -22487.805959   4931.978723   -169.782528
PE30  -1615.895752 -21258.336286  20524.329740   -564.334410
PE31   2110.182604  21391.381159 -20340.084391     -7.101605
PE33 -26058.573241  12275.819920   6780.295914      0.153905
PE34  25750.470173 -12629.063583  -7363.605440    -71.343339
PE36  27224.489896   -300.704584  11622.854347   -127.257390
PG01   -780.821941 -14896.098036 -22290.483654    163.985769
PG02   6433.744103 -16525.024701 -19212.376386   -544.392243
PG03  -9381.746727 -21318.453876 -13011.407871    -90.217845
PG04   -685.794807 -24246.985270  10678.011418    178.999193
PG05  -3972.390976  15674.554266  20870.566150   -145.769706
PG06 -25925.399152   5614.641024  -2071.554329    534.671209
PG07 -18249.884674  -8309.694114  18121.470901     45.567034
PG08   5186.548052 -25813.745761   -763.628879   -146.157909
PG09  -8531.427415 -17974.603182  17483.124271    -37.800909
PG10  21344.092813   7785.508828 -13841.068114    -56.561688
PG11 -21189.793649  12199.624890  10323.859884   -406.316132
PG12   5324.654668  21519.579487 -14958.872360   -433.733933
PG13 -13425.061218  21908.378855   6065.789742    581.815022
PG14 -21646.367425 -10768.458000 -11166.283046    208.427672
PG15  -1145.358370  26356.781209  -2121.747758     85.238570
PG16  10338.537483 -10935.479831  21554.723602   -442.128768
PG17 -14808.467719  -1924.937562 -21536.475691    723.851479
PG18  19614.741880   6600.159299  16758.556610   -442.839287
PG19 -16738.573919   6632.645082 -19604.986021    382.351022
PG20 -14430.040271   8114.570166  20773.440952    407.804050
PG21   9328.061227 -16637.901821 -17554.797794    147.206652
PG22 -19628.494137  -5279.829245 -16487.619116    106.549052
PG23  20726.073655  16549.238212  -2683.347587     79.817622
PG24  -3327.619795  17260.385659 -20184.988094   -341.060820
PG25  16803.958854  20321.579229  -4538.950590    471.786460
PG26  18118.712601  -3303.454219  19130.656346    224.298087
PG27  12715.288964 -20292.229585  10770.605725    -52.172932
PG28  25718.121983  -5107.687338  -4267.397729    -22.189659
PG29   6636.201992  18378.593087  17896.831909   -609.943635
PG30 -24621.551569  -1106.014431  10360.194721   -480.425514
PG31  24292.826582  -9986.735984   5050.617575   -224.414712
PG32  15780.507044  -2821.605108 -20960.388216   -569.927424
PJ02 -21867.764960  19806.942663 -25537.025537     -5.343721
PJ03 -30110.349548  29203.796831   9521.907461     -4.595259
PJ04 -26320.573282  27333.456142  24300.638457     71.053035
PR01   8852.261207  -9732.461650 -21861.222890     67.294341
PR02   1380.666315 -23380.961909  -9980.477270    -22.395309
PR03  -7106.322610 -23310.942670   7463.425116     86.720462
PR04 -11103.054573 -10548.830430  20414.337928    206.050156
PR05  -9365.404745   7967.001443  22357.660596    120.313538
PR07   7359.100388  23046.140472  -8142.674525     66.423142
PR08  11264.878944  10348.652535 -20372.878036    -72.876674
PR09  -2895.491361  10971.348223 -22822.948427    146.593284
PR11  23703.521883   9351.927594   -941.012059   -189.784081
PR12  19174.682054  -1280.977412  16809.022606     32.143907
PR13   5122.693166  -9858.657325  22950.201857    -40.011452
PR14 -14655.008983 -13691.513596  15788.538207     25.381672
PR15 -23877.937705  -8971.571707   -406.171021     85.537817
PR16 -19347.110524   1088.975802 -16595.420559     19.451745
PR17  -2237.855558 -11410.658335 -22697.655833     24.088253
PR18 -15683.658955    684.612351 -20099.846951    105.903139
PR19 -21416.592228  10822.691287  -8629.068126   -250.197708
PR20 -14505.828468  17153.566394  12123.831791   -101.447355
PR21   2982.813301  10786.652952  22921.608665    -44.093684
PR22  16493.685635   -612.002900  19475.297746     87.801442
PR24  13281.917255 -17849.678734 -12479.087005    -27.474356
PR25   1978.795804  11711.321100  22578.243984     29.023745
PR26  11302.836542  10704.216765 -20186.808177    -21.293662
EOF
